H1 CPF  2  SHA 2024 03 17 03   77  1 hy2b             NONE
H2  1808101 2208    43655 2024  3 17  0  0  0 2024  3 21 11 59  0    60 1 1  0 0 0 1
H9
10 0 60386  79200.000000  0      -3780483.850       6278335.708       -533363.636
10 0 60386  79260.000000  0      -3668491.525       6293385.769       -967112.353
10 0 60386  79320.000000  0      -3543264.572       6284740.976      -1397352.113
10 0 60386  79380.000000  0      -3405465.080       6252325.759      -1822523.174
10 0 60386  79440.000000  0      -3255800.665       6196156.721      -2241085.494
10 0 60386  79500.000000  0      -3095021.058       6116342.791      -2651524.129
10 0 60386  79560.000000  0      -2923914.538       6013085.069      -3052354.655
10 0 60386  79620.000000  0      -2743304.040       5886676.152      -3442128.951
10 0 60386  79680.000000  0      -2554043.469       5737499.287      -3819440.016
10 0 60386  79740.000000  0      -2357013.537       5566026.893      -4182927.457
10 0 60386  79800.000000  0      -2153117.939       5372819.034      -4531281.907
10 0 60386  79860.000000  0      -1943279.059       5158521.193      -4863250.038
10 0 60386  79920.000000  0      -1728434.088       4923862.154      -5177638.560
10 0 60386  79980.000000  0      -1509530.726       4669651.160      -5473318.699
10 0 60386  80040.000000  0      -1287523.118       4396775.003      -5749229.982
10 0 60386  80100.000000  0      -1063367.881       4106194.924      -6004383.760
10 0 60386  80160.000000  0       -838019.801       3798942.762      -6237866.852
10 0 60386  80220.000000  0       -612428.072       3476117.460      -6448844.352
10 0 60386  80280.000000  0       -387532.132       3138880.697      -6636562.631
10 0 60386  80340.000000  0       -164258.063       2788452.945      -6800351.601
10 0 60386  80400.000000  0         56485.380       2426108.660      -6939627.104
10 0 60386  80460.000000  0        273810.131       2053172.005      -7053892.656
10 0 60386  80520.000000  0        486852.528       1671011.665      -7142741.204
10 0 60386  80580.000000  0        694776.590       1281035.970      -7205856.373
10 0 60386  80640.000000  0        896777.118        884687.960      -7243013.464
10 0 60386  80700.000000  0       1092082.987        483439.661      -7254080.234
10 0 60386  80760.000000  0       1279959.784         78787.187      -7239017.271
10 0 60386  80820.000000  0       1459712.760       -327755.273      -7197878.119
10 0 60386  80880.000000  0       1630689.118       -734660.502      -7130809.095
10 0 60386  80940.000000  0       1792280.578      -1140394.400      -7038048.791
10 0 60386  81000.000000  0       1943925.320      -1543421.184      -6919927.371
10 0 60386  81060.000000  0       2085110.113      -1942209.511      -6776865.435
10 0 60386  81120.000000  0       2215371.967      -2335238.027      -6609372.713
10 0 60386  81180.000000  0       2334299.639      -2721001.004      -6418046.509
10 0 60386  81240.000000  0       2441535.074      -3098014.453      -6203569.629
10 0 60386  81300.000000  0       2536774.379      -3464821.451      -5966708.361
10 0 60386  81360.000000  0       2619768.829      -3819998.263      -5708309.633
10 0 60386  81420.000000  0       2690325.373      -4162159.473      -5429298.458
10 0 60386  81480.000000  0       2748307.133      -4489963.874      -5130674.471
10 0 60386  81540.000000  0       2793633.480      -4802119.382      -4813508.906
10 0 60386  81600.000000  0       2826280.028      -5097388.616      -4478940.610
10 0 60386  81660.000000  0       2846278.280      -5374593.778      -4128172.291
10 0 60386  81720.000000  0       2853715.085      -5632621.458      -3762466.468
10 0 60386  81780.000000  0       2848731.856      -5870427.549      -3383140.687
10 0 60386  81840.000000  0       2831523.530      -6087041.384      -2991563.247
10 0 60386  81900.000000  0       2802337.303      -6281570.153      -2589147.906
10 0 60386  81960.000000  0       2761471.159      -6453202.556      -2177349.210
10 0 60386  82020.000000  0       2709272.101      -6601212.605      -1757656.760
10 0 60386  82080.000000  0       2646134.272      -6724962.656      -1331590.261
10 0 60386  82140.000000  0       2572496.739      -6823906.487       -900693.426
10 0 60386  82200.000000  0       2488841.162      -6897591.700       -466528.513
10 0 60386  82260.000000  0       2395689.278      -6945661.836        -30670.666
10 0 60386  82320.000000  0       2293600.092      -6967858.187        405298.317
10 0 60386  82380.000000  0       2183167.123      -6964021.105        839795.395
10 0 60386  82440.000000  0       2065015.265      -6934090.982       1271242.713
10 0 60386  82500.000000  0       1939797.754      -6878108.752       1698073.037
10 0 60386  82560.000000  0       1808192.741      -6796215.918       2118736.110
10 0 60386  82620.000000  0       1670900.064      -6688654.248       2531703.943
10 0 60386  82680.000000  0       1528637.675      -6555764.959       2935476.895
10 0 60386  82740.000000  0       1382138.173      -6397987.553       3328589.086
10 0 60386  82800.000000  0       1232145.326      -6215858.325       3709613.607
10 0 60386  82860.000000  0       1079410.337      -6010008.224       4077168.177
10 0 60386  82920.000000  0        924688.440      -5781160.704       4429919.775
10 0 60386  82980.000000  0        768735.164      -5530128.798       4766589.879
10 0 60386  83040.000000  0        612302.959      -5257812.280       5085958.755
10 0 60386  83100.000000  0        456137.527      -4965193.961       5386870.213
10 0 60386  83160.000000  0        300974.564      -4653336.235       5668235.402
10 0 60386  83220.000000  0        147536.287      -4323376.738       5929036.976
10 0 60386  83280.000000  0         -3471.761      -3976524.098       6168332.556
10 0 60386  83340.000000  0       -151363.764      -3614053.507       6385257.906
10 0 60386  83400.000000  0       -295476.823      -3237301.487       6579030.184
10 0 60386  83460.000000  0       -435173.648      -2847661.303       6748950.336
10 0 60386  83520.000000  0       -569845.473      -2446577.246       6894405.749
10 0 60386  83580.000000  0       -698914.463      -2035539.708       7014872.135
10 0 60386  83640.000000  0       -821836.295      -1616079.085       7109915.511
10 0 60386  83700.000000  0       -938102.261      -1189760.515       7179193.560
10 0 60386  83760.000000  0      -1047241.462       -758177.573       7222456.892
10 0 60386  83820.000000  0      -1148822.643       -322946.464       7239549.837
10 0 60386  83880.000000  0      -1242455.855        114299.896       7230410.962
10 0 60386  83940.000000  0      -1327794.035        551918.412       7195073.288
10 0 60386  84000.000000  0      -1404534.184        988261.496       7133664.188
10 0 60386  84060.000000  0      -1472418.556       1421683.813       7046404.896
10 0 60386  84120.000000  0      -1531235.428       1850547.941       6933609.855
10 0 60386  84180.000000  0      -1580819.852       2273231.134       6795685.520
10 0 60386  84240.000000  0      -1621054.013       2688130.943       6633129.135
10 0 60386  84300.000000  0      -1651867.534       3093671.821       6446526.889
10 0 60386  84360.000000  0      -1673237.446       3488310.939       6236551.955
10 0 60386  84420.000000  0      -1685187.980       3870543.992       6003962.281
10 0 60386  84480.000000  0      -1687790.163       4238911.414       5749597.778
10 0 60386  84540.000000  0      -1681161.172       4592003.669       5474377.659
10 0 60386  84600.000000  0      -1665463.490       4928467.197       5179296.942
10 0 60386  84660.000000  0      -1640903.858       5247009.385       4865423.239
10 0 60386  84720.000000  0      -1607731.972       5546404.093       4533892.619
10 0 60386  84780.000000  0      -1566239.053       5825496.149       4185905.949
10 0 60386  84840.000000  0      -1516756.149       6083206.352       3822724.202
10 0 60386  84900.000000  0      -1459652.325       6318535.650       3445664.122
10 0 60386  84960.000000  0      -1395332.686       6530569.186       3056093.555
10 0 60386  85020.000000  0      -1324236.109       6718480.267       2655426.084
10 0 60386  85080.000000  0      -1246832.929       6881533.539       2245116.244
10 0 60386  85140.000000  0      -1163622.346       7019088.215       1826653.700
10 0 60386  85200.000000  0      -1075129.846       7130600.547       1401558.191
10 0 60386  85260.000000  0       -981904.332       7215626.236        971373.427
10 0 60386  85320.000000  0       -884515.332       7273822.164        537661.817
10 0 60386  85380.000000  0       -783549.932       7304947.946        101998.243
10 0 60386  85440.000000  0       -679609.736       7308866.894       -334035.701
10 0 60386  85500.000000  0       -573307.787       7285546.606       -768857.418
10 0 60386  85560.000000  0       -465265.291       7235059.054      -1200889.691
10 0 60386  85620.000000  0       -356108.539       7157580.265      -1628566.085
10 0 60386  85680.000000  0       -246465.599       7053389.490      -2050337.185
10 0 60386  85740.000000  0       -136963.246       6922868.114      -2464675.853
10 0 60386  85800.000000  0        -28223.688       6766497.952      -2870083.278
10 0 60386  85860.000000  0         79138.450       6584859.420      -3265093.991
10 0 60386  85920.000000  0        184519.300       6378629.027      -3648281.584
10 0 60386  85980.000000  0        287328.724       6148576.656      -4018263.705
10 0 60386  86040.000000  0        386993.188       5895562.591      -4373706.826
10 0 60386  86100.000000  0        482958.707       5620533.789      -4713331.410
10 0 60386  86160.000000  0        574693.435       5324520.415      -5035915.962
10 0 60386  86220.000000  0        661690.390       5008631.408      -5340301.749
10 0 60386  86280.000000  0        743469.802       4674050.493      -5625396.406
10 0 60386  86340.000000  0        819581.535       4322031.148      -5890178.078
99